[
    {
        "OBJECT_NAME": "GPS BIII-3  (PRN 23)",
        "OBJECT_ID": "2020-041A",
        "EPOCH": "2026-06-07T12:21:18.803808",
        "MEAN_MOTION": 2.00559006,
        "ECCENTRICITY": 0.00635211,
        "INCLINATION": 56.6631,
        "RA_OF_ASC_NODE": 29.3193,
        "ARG_OF_PERICENTER": 204.6414,
        "MEAN_ANOMALY": 337.4617,
        "EPHEMERIS_TYPE": 0,
        "CLASSIFICATION_TYPE": "U",
        "NORAD_CAT_ID": 45854,
        "ELEMENT_SET_NO": 999,
        "REV_AT_EPOCH": 4384,
        "BSTAR": 0,
        "MEAN_MOTION_DOT": -6.7e-7,
        "MEAN_MOTION_DDOT": 0
    },
    {
        "OBJECT_NAME": "GPS BIII-4  (PRN 14)",
        "OBJECT_ID": "2020-078A",
        "EPOCH": "2026-06-08T06:47:19.071168",
        "MEAN_MOTION": 2.00564887,
        "ECCENTRICITY": 0.00731815,
        "INCLINATION": 53.981,
        "RA_OF_ASC_NODE": 211.14,
        "ARG_OF_PERICENTER": 206.9188,
        "MEAN_ANOMALY": 145.7868,
        "EPHEMERIS_TYPE": 0,
        "CLASSIFICATION_TYPE": "U",
        "NORAD_CAT_ID": 46826,
        "ELEMENT_SET_NO": 999,
        "REV_AT_EPOCH": 4132,
        "BSTAR": 0,
        "MEAN_MOTION_DOT": 5.7e-7,
        "MEAN_MOTION_DDOT": 0
    },
    {
        "OBJECT_NAME": "GPS BIII-5  (PRN 11)",
        "OBJECT_ID": "2021-054A",
        "EPOCH": "2026-06-08T00:22:26.474016",
        "MEAN_MOTION": 2.00569684,
        "ECCENTRICITY": 0.00251061,
        "INCLINATION": 55.1794,
        "RA_OF_ASC_NODE": 332.8289,
        "ARG_OF_PERICENTER": 228.6051,
        "MEAN_ANOMALY": 117.2821,
        "EPHEMERIS_TYPE": 0,
        "CLASSIFICATION_TYPE": "U",
        "NORAD_CAT_ID": 48859,
        "ELEMENT_SET_NO": 999,
        "REV_AT_EPOCH": 3656,
        "BSTAR": 0,
        "MEAN_MOTION_DOT": -6.0e-7,
        "MEAN_MOTION_DDOT": 0
    },
    {
        "OBJECT_NAME": "GPS BIII-6  (PRN 28)",
        "OBJECT_ID": "2023-009A",
        "EPOCH": "2026-06-07T05:43:38.653248",
        "MEAN_MOTION": 2.00572185,
        "ECCENTRICITY": 0.00061926,
        "INCLINATION": 55.1217,
        "RA_OF_ASC_NODE": 148.9102,
        "ARG_OF_PERICENTER": 318.0671,
        "MEAN_ANOMALY": 224.974,
        "EPHEMERIS_TYPE": 0,
        "CLASSIFICATION_TYPE": "U",
        "NORAD_CAT_ID": 55268,
        "ELEMENT_SET_NO": 999,
        "REV_AT_EPOCH": 2504,
        "BSTAR": 0,
        "MEAN_MOTION_DOT": 1.01e-6,
        "MEAN_MOTION_DDOT": 0
    },
    {
        "OBJECT_NAME": "GPS BIII-7  (PRN 01)",
        "OBJECT_ID": "2024-242A",
        "EPOCH": "2026-06-07T20:53:43.918080",
        "MEAN_MOTION": 2.0057146,
        "ECCENTRICITY": 0.00173904,
        "INCLINATION": 54.8519,
        "RA_OF_ASC_NODE": 334.5596,
        "ARG_OF_PERICENTER": 4.1176,
        "MEAN_ANOMALY": 357.6425,
        "EPHEMERIS_TYPE": 0,
        "CLASSIFICATION_TYPE": "U",
        "NORAD_CAT_ID": 62339,
        "ELEMENT_SET_NO": 999,
        "REV_AT_EPOCH": 1107,
        "BSTAR": 0,
        "MEAN_MOTION_DOT": -6.2e-7,
        "MEAN_MOTION_DDOT": 0
    },
    {
        "OBJECT_NAME": "GPS BIII-8  (PRN 21)",
        "OBJECT_ID": "2025-116A",
        "EPOCH": "2026-06-04T08:47:30.944832",
        "MEAN_MOTION": 2.00577081,
        "ECCENTRICITY": 0.00084526,
        "INCLINATION": 55.2259,
        "RA_OF_ASC_NODE": 31.6468,
        "ARG_OF_PERICENTER": 337.8257,
        "MEAN_ANOMALY": 196.1658,
        "EPHEMERIS_TYPE": 0,
        "CLASSIFICATION_TYPE": "U",
        "NORAD_CAT_ID": 64202,
        "ELEMENT_SET_NO": 999,
        "REV_AT_EPOCH": 761,
        "BSTAR": 0,
        "MEAN_MOTION_DOT": -7.3e-7,
        "MEAN_MOTION_DDOT": 0
    },
    {
        "OBJECT_NAME": "GPS BIII-9  (PRN 20)",
        "OBJECT_ID": "2026-017A",
        "EPOCH": "2026-06-05T05:33:50.638176",
        "MEAN_MOTION": 2.00571538,
        "ECCENTRICITY": 0.00226637,
        "INCLINATION": 55.0812,
        "RA_OF_ASC_NODE": 89.2351,
        "ARG_OF_PERICENTER": 257.5579,
        "MEAN_ANOMALY": 102.1794,
        "EPHEMERIS_TYPE": 0,
        "CLASSIFICATION_TYPE": "U",
        "NORAD_CAT_ID": 67588,
        "ELEMENT_SET_NO": 999,
        "REV_AT_EPOCH": 43137,
        "BSTAR": 0,
        "MEAN_MOTION_DOT": 4.0e-8,
        "MEAN_MOTION_DDOT": 0
    },
    {
        "OBJECT_NAME": "GPS BIII-10 (PRN 13)",
        "OBJECT_ID": "2026-087A",
        "EPOCH": "2026-06-07T10:32:17.680992",
        "MEAN_MOTION": 2.00569573,
        "ECCENTRICITY": 0.00209312,
        "INCLINATION": 54.9638,
        "RA_OF_ASC_NODE": 208.1735,
        "ARG_OF_PERICENTER": 107.2972,
        "MEAN_ANOMALY": 251.8874,
        "EPHEMERIS_TYPE": 0,
        "CLASSIFICATION_TYPE": "U",
        "NORAD_CAT_ID": 68791,
        "ELEMENT_SET_NO": 999,
        "REV_AT_EPOCH": 63,
        "BSTAR": 0,
        "MEAN_MOTION_DOT": 5.7e-7,
        "MEAN_MOTION_DDOT": 0
    }
]